HAWK-11B                
1 62379U 24247C   26068.44730104  .00009093  00000+0  32842-3 0  9993
2 62379  45.0161 115.7610 0004690 333.0326  27.0314 15.28847070 67738
STARLINK-35900          
1 66886U 25283J   26068.17543655  .00029525  00000+0  10055-2 0  9997
2 66886  53.1612  26.6843 0001219  73.9111 286.2024 15.30183452 15763
